[{"OBJECT_NAME":"YUNHAI-2 01E","OBJECT_ID":"2018-112E","EPOCH":"2026-03-09T23:43:19.223616","MEAN_MOTION":14.28966536,"ECCENTRICITY":0.0005031,"INCLINATION":50.0058,"RA_OF_ASC_NODE":227.8366,"ARG_OF_PERICENTER":19.8799,"MEAN_ANOMALY":340.2311,"EPHEMERIS_TYPE":0,"CLASSIFICATION_TYPE":"U","NORAD_CAT_ID":43913,"ELEMENT_SET_NO":999,"REV_AT_EPOCH":37497,"BSTAR":0.00013746904,"MEAN_MOTION_DOT":1.88e-6,"MEAN_MOTION_DDOT":0},{"OBJECT_NAME":"CZ-6A DEB","OBJECT_ID":"2024-140LN","EPOCH":"2026-03-09T14:56:03.686496","MEAN_MOTION":14.52105418,"ECCENTRICITY":0.0104397,"INCLINATION":89.0156,"RA_OF_ASC_NODE":283.8792,"ARG_OF_PERICENTER":248.3321,"MEAN_ANOMALY":110.6744,"EPHEMERIS_TYPE":0,"CLASSIFICATION_TYPE":"U","NORAD_CAT_ID":60963,"ELEMENT_SET_NO":999,"REV_AT_EPOCH":8317,"BSTAR":0.00021042,"MEAN_MOTION_DOT":9.31e-6,"MEAN_MOTION_DDOT":0}]
